#cP2016 12 15  0  0  0.00000000      96 ORBIT IGb08 HLM  IGS
## 1927 345600.00000000   900.00000000 57737 0.0000000000000
+   32   G01G02G03G04G05G06G07G08G09G10G11G12G13G14G15G16G17
+        G18G19G20G21G22G23G24G25G26G27G28G29G30G31G32  0  0
+          0  0  0  0  0  0  0  0  0  0  0  0  0  0  0  0  0
+          0  0  0  0  0  0  0  0  0  0  0  0  0  0  0  0  0
+          0  0  0  0  0  0  0  0  0  0  0  0  0  0  0  0  0
++         2  2  2  4  2  2  2  2  2  2  2  2  2  2  2  2  2
++         2  2  2  2  2  2  2  2  2  2  2  2  2  2  2  0  0
++         0  0  0  0  0  0  0  0  0  0  0  0  0  0  0  0  0
++         0  0  0  0  0  0  0  0  0  0  0  0  0  0  0  0  0
++         0  0  0  0  0  0  0  0  0  0  0  0  0  0  0  0  0
%c G  cc GPS ccc cccc cccc cccc cccc ccccc ccccc ccccc ccccc
%c cc cc ccc ccc cccc cccc cccc cccc ccccc ccccc ccccc ccccc
%f  1.2500000  1.025000000  0.00000000000  0.000000000000000
%f  0.0000000  0.000000000  0.00000000000  0.000000000000000
%i    0    0    0    0      0      0      0      0         0
%i    0    0    0    0      0      0      0      0         0
/* FINAL ORBIT COMBINATION FROM WEIGHTED AVERAGE OF:        
/* cod emr esa gfz grg jpl mit ngs sio                      
/* REFERENCED TO IGS TIME (IGST) AND TO WEIGHTED MEAN POLE: 
/* PCV:IGS08_1928 OL/AL:FES2004  NONE     Y  ORB:CMB CLK:CMB
*  2016 12 15  6  0  0.00000000
PG01  14171.959775 -21386.955741   6244.414635     43.678924  4  7  1  95       
PG02 -16343.976185   1585.569741 -20334.387047    510.277820  5  5  5  92       
PG03  17752.454265 -12694.049842 -15136.816513   -102.722182  7  6  6 131       
PG04  16533.781560 -15526.058295  13230.467731 999999.999999
PG05 -26528.662441   1874.457185  -2087.420640    -72.055594  5  5  4  84       
PG06 -11021.593674 -11499.458957 -21239.893964    286.138244  5  7  5 104       
PG07   5065.155918 -24566.298575   8219.496215    401.976317  3 10  3  92       
PG08  13124.615396  -7687.835971  21834.053814    -42.479857  8  5  8 102       
PG09  -4485.907491 -22245.481194 -13822.322125    263.921876  4  5  5  96       
PG10  14944.056340  11496.432241  18756.637631   -115.969580  4  4  4 117       
PG11  11539.161944 -19062.251367  13909.601974   -672.775793  3  6  4  85       
PG12 -19356.858131  10749.319463 -14646.567445    389.388369  5  6  6 122       
PG13 -17345.987060  -3064.195967  19736.103729    -60.077908  6  6  4 116       
PG14  18345.800285  16532.261127  -9717.310997    -49.593576  5  7  7 114       
PG15 -13376.851648   8606.832991  21134.530034   -337.502147  5  5  3 117       
PG16  26694.674587    395.398046  -2172.038309     19.441002  5  8  3 112       
PG17 -15733.070812 -21416.267610  -1729.378426   -196.991128  5  8  4  98       
PG18   3034.512345  15979.445970  21558.518421    584.121465  4  7  6 104       
PG19 -17649.368954 -17620.085744  -8926.987008   -518.039670  4  6  6  94       
PG20 -18980.182154  13566.148348  12548.122603    450.824199  7  7  3 108       
PG21    -22.371900  23966.201872  12010.767971   -528.724365  6  8  5  88       
PG22  22204.530277 -10810.861907  -9659.234384    161.561344  6  5  6 118       
PG23   7340.268043 -14860.732150 -20450.533959   -199.784319  7  7  8 114       
PG24 -14948.921078  19836.852049   9012.849515    -27.561373  6  5  2 116       
PG25  -5931.990247  15019.453136 -21172.829185   -299.974768  3  6  5 101       
PG26  23168.395050   5483.157791 -11832.359613   -510.893996  5  6  3 110       
PG27  19323.025293   6447.770499  17106.276442    179.477561  3  5  3 115       
PG28 -11186.468007 -13279.111577  20747.152067    574.491714  4  8  6 109       
PG29   1064.697510  21198.718462 -15980.082616    638.679082  3 10  7  85       
PG30  -3588.015255 -19894.810860  17168.206619    159.115431  3  8  5 117       
PG31  11578.603630  10084.539961 -21538.690484    230.981486  5  4  2 111       
PG32  16241.750747  21026.854271   -554.521355   -241.080474  5  5  5 123       
*  2016 12 15  6 15  0.00000000
PG01  14067.030148 -20472.767251   8944.143556     43.679996  4  7     72       
PG02 -15615.692016   -778.437426 -20963.211860    510.272707  5  5  5  98       
PG03  19371.719109 -12729.676805 -12962.749894   -102.723502  7  6  6 127       
PG04  16184.425568 -13834.851121  15331.146900 999999.999999
PG05 -26190.851674   1538.780190  -4864.926889    -72.053964  4  6  5  92       
PG06 -10081.946788 -13690.802606 -20390.644635    286.142861  5  7  5 132       
PG07   5606.470157 -25177.123117   5478.524457    401.973221  3 10  2  92       
PG08  14646.969971  -5751.636182  21462.983269    -42.480895  8  6  8 106       
PG09  -3265.622647 -21048.612209 -15888.862580    263.928477  4  5  5 101       
PG10  12770.388446  11936.725436  20036.004961   -115.969476  4  4  4 118       
PG11  11860.326339 -17258.415986  15789.142604   -672.772716  3  6  4  96       
PG12 -20889.453562  10740.985059 -12324.713470    389.388223  5  6  5 118       
PG13 -18406.152757  -4997.143753  18335.272206    -60.079592  6  7  5 123       
PG14  18712.881364  17478.414108  -7088.306682    -49.595095  5  7  7  99       
PG15 -14986.505596   6777.456749  20752.634881   -337.503295  5  5  3 105       
PG16  26311.381657    561.566862  -5023.378917     19.442507  5  8  4 112       
PG17 -15618.936101 -21585.643761   1151.094371   -196.990601  5  8  4  87       
PG18    712.479410  16390.883778  21427.447621    584.124295  4  7  5 107       
PG19 -17923.443796 -18443.592268  -6200.733114   -518.038900  5  6  6 114       
PG20 -20343.437848  13585.984321  10201.914237    450.825792  7  7  2 110       
PG21   -664.997729  24951.439894   9566.508107   -528.723258  6  8  6  94       
PG22  23240.269716 -10668.397695  -7115.449058    161.551325  7  5  6 128       
PG23   8929.890814 -13015.251663 -21098.951916   -199.785508  7  7  8 112       
PG24 -14799.307024  18622.554209  11509.332549    -27.562781  6  5  3 114       
PG25  -8258.700231  15276.555042 -20161.715236   -299.980866  4  5  4 116       
PG26  21734.012065   5915.250662 -14117.015747   -510.896868  5  6  3 103       
PG27  20364.544060   7975.012326  15163.830851    179.482409  3  5  3 121       
PG28  -8903.575952 -13478.738047  21729.479851    574.494570  3  8  6 107       
PG29   -149.621729  19692.962177 -17831.344433    638.677315  3 10  7 101       
PG30  -2616.586270 -21498.114069  15299.809733    159.116007  3  8  6 125       
PG31  10538.805368  12303.946652 -20877.989275    230.979418  5  5  2 123       
PG32  15977.782131  21112.255886   2293.264660   -241.094707  5  5  5 131       
*  2016 12 15  6 30  0.00000000
PG01  13914.908589 -19270.574839  11487.141651     43.681000  3  7     67       
PG02 -14988.679438  -3220.840267 -21214.215014    510.267214  5  5  5 113       
PG03  20733.712292 -12796.615581 -10565.545486   -102.724786  7  6  5 130       
PG04  15853.007858 -11911.168728  17158.139183 999999.999999
PG05 -25570.126999   1120.570198  -7559.855378    -72.051917  4  6  5  85       
PG06  -9295.614207 -15818.323400 -19190.095454    286.147338  5  7  5 116       
PG07   6010.805849 -25515.075793   2641.226585    401.970143  2  9  3  84       
PG08  16227.463611  -3945.616246  20724.810673    -42.482027  8  6  7 105       
PG09  -1839.461823 -19754.116258 -17682.387999    263.935084  5  6  6 115       
PG10  10499.358088  12515.520511  20971.744567   -115.969323  4  4  4 117       
PG11  12269.623127 -15268.036448  17386.465505   -672.769351  2  5  4 102       
PG12 -22148.774631  10776.574957  -9789.951077    389.388202  5  5  4 118       
PG13 -19465.255968  -6725.198142  16615.207033    -60.081387  7  8  5 119       
PG14  18945.256116  18159.489222  -4337.399501    -49.596652  6  7  6 114       
PG15 -16632.354833   5073.352939  20010.406568   -337.504156  5  4  4 110       
PG16  25625.532952    790.993247  -7790.486739     19.443733  5  7  4  99       
PG17 -15312.111433 -21508.092337   4012.031075   -196.989969  6  9  5  89       
PG18  -1557.310934  16905.406943  20944.854292    584.126916  4  7  5 107       
PG19 -18052.656949 -18998.291381  -3366.508978   -518.038263  6  7  5  96       
PG20 -21439.887682  13590.350901   7679.013544    450.827291  8  6  1 110       
PG21  -1185.327667  25698.635427   6960.783160   -528.721952  6  8  6  95       
PG22  23994.843500 -10505.294433  -4448.943187    161.541226  7  5  6 119       
PG23  10640.145042 -11212.992405 -21375.582618   -199.786572  7  7  8 114       
PG24 -14631.560285  17141.684610  13804.690183    -27.562726  6  5  3 115       
PG25 -10439.044488  15633.875976 -18805.606842   -299.986981  5  5  4 110       
PG26  20084.701395   6473.797655 -16159.339457   -510.899710  5  6  3 111       
PG27  21330.227707   9268.056613  12961.966362    179.487287  2  5  3 118       
PG28  -6549.838302 -13821.884628  22358.834224    574.497244  3  8  6 112       
PG29  -1565.290028  18105.738859 -19375.986847    638.675384  3 10  7  95       
PG30  -1811.144240 -22938.421229  13166.807098    159.116574  4  9  6 122       
PG31   9649.428442  14487.853650 -19852.573873    230.977435  5  6  4 123       
PG32  15504.203963  20973.778980   5101.647853   -241.108925  4  5  5 119       
EOF
